
 1 90027U RELEAS14 00051.03935584 +.00000209  00000 0  99999-4 4 1844                                                                                                                                                                                                                                                                                                                                                                                                                                                           
 2 90027  64.3871 233.3669 6991935 271.4388  16.5332  1.9699794003847                                                                                                                                                                                                                                                                                                                                                                                                                                                           

         0.0000000        1.9699803        0.6991935       64.3871000      233.3669000      271.4388000       16.5332000
      2700.0000000        1.9699847        0.6991300       64.3902364      233.1509854      271.4201977      266.2216103
      5400.0000000        1.9700090        0.6990268       64.3939784      232.9388642      271.3989858      155.9158380
      8100.0000000        1.9700482        0.6989179       64.3966066      232.7317284      271.3749426       45.6310829
     10800.0000000        1.9700945        0.6988291       64.3975834      232.5281305      271.3497683      295.3774587
     13500.0000000        1.9701396        0.6987716       64.3973411      232.3255759      271.3255426      185.1583560
     16200.0000000        1.9701761        0.6987424       64.3969197      232.1214794      271.3038584       74.9705086
     18900.0000000        1.9701983        0.6987250       64.3975611      231.9138975      271.2852448      324.8048994
     21600.0000000        1.9702029        0.6986923       64.4000195      231.7025721      271.2685504      214.6483937
     24300.0000000        1.9701887        0.6986199       64.4036870      231.4898381      271.2508376      104.4865436
     27000.0000000        1.9701577        0.6985102       64.4064985      231.2796575      271.2289312      354.3072202
     29700.0000000        1.9701146        0.6984000       64.4064748      231.0741621      271.2022324      244.1029004
     32400.0000000        1.9700667        0.6983307       64.4037317      230.8709803      271.1738720      133.8700943
     35100.0000000        1.9700228        0.6983061       64.4006840      230.6650846      271.1482485       23.6078922
     37800.0000000        1.9699916        0.6982851       64.4000481      230.4537852      271.1270401      273.3185441
     40500.0000000        1.9699794        0.6982227       64.4025950      230.2394388      271.1078255      163.0097522
     43200.0000000        1.9699884        0.6981110       64.4068449      230.0268705      271.0868494       52.6951754


 1 90028U RELEAS14 00051.15714066 -.00000031  00000 0 -13568-4 4 0377                                                                                                                                                                                                                                                                                                                                                                                                                                                           
 2 90028  72.5158 115.6069 0011430 124.7615 235.4297 12.4439648802428                                                                                                                                                                                                                                                                                                                                                                                                                                                           

         0.0000000       12.4439705        0.0011430       72.5158000      115.6069000      124.7615000      235.4297000
      2700.0000000       12.4439705        0.0011650       72.5149944      112.9169448      123.8731068      350.2721659
      5400.0000000       12.4439705        0.0011864       72.5146117      110.2269440      122.9805133      105.1199211
      8100.0000000       12.4439705        0.0012068       72.5147151      107.5371241      122.0793772      219.9760898
     10800.0000000       12.4439705        0.0012267       72.5150129      104.8475157      121.1618872      334.8477275
     13500.0000000       12.4439705        0.0012463       72.5151494      102.1579849      120.2279819       89.7349219
     16200.0000000       12.4439705        0.0012656       72.5149075       99.4683239      119.2835180      204.6324571
     18900.0000000       12.4439705        0.0012841       72.5143249       96.7783619      118.3318062      319.5379110
     21600.0000000       12.4439705        0.0013018       72.5137173       94.0880886      117.3690981       74.4556298
     24300.0000000       12.4439705        0.0013190       72.5135107       91.3977182      116.3917842      189.3889716
     27000.0000000       12.4439705        0.0013360       72.5138788       88.7075692      115.4066218      304.3300501
     29700.0000000       12.4439705        0.0013524       72.5145080       86.0177834      114.4231737       59.2681883
     32400.0000000       12.4439705        0.0013677       72.5148404       83.3281582      113.4389591      174.2058681
     35100.0000000       12.4439705        0.0013825       72.5146229       80.6383156      112.4481907      289.1500666
     37800.0000000       12.4439705        0.0013970       72.5141878       77.9480800      111.4575415       44.0953112
     40500.0000000       12.4439705        0.0014111       72.5141168       75.2576762      110.4734962      159.0350704
     43200.0000000       12.4439705        0.0014240       72.5146337       72.5675049      109.4863794      273.9778228


 1 90029U RELEAS14 00051.38558242 +.00000961  00000 0  44365-3 4 5319                                                                                                                                                                                                                                                                                                                                                                                                                                                           
 2 90029  98.7064 100.2836 0014146 119.4841 240.7749 14.2193618701011                                                                                                                                                                                                                                                                                                                                                                                                                                                           

         0.0000000       14.2193683        0.0014146       98.7064000      100.2836000      119.4841000      240.7749000
      2700.0000000       14.2193685        0.0014644       98.7058219      102.1313228      117.6892989      109.5460463
      5400.0000000       14.2193688        0.0015110       98.7056691      103.9791469      115.8380415      338.3737188
      8100.0000000       14.2193691        0.0015544       98.7057910      105.8270417      113.9397150      207.2480490
     10800.0000000       14.2193694        0.0015947       98.7059449      107.6749257      112.0006010       76.1626496
     13500.0000000       14.2193696        0.0016321       98.7059217      109.5227116      110.0255287      305.1128564
     16200.0000000       14.2193699        0.0016660       98.7055948      111.3703339      108.0189365      174.0945540
     18900.0000000       14.2193702        0.0016964       98.7049570      113.2177766      105.9857280       43.1032422
     21600.0000000       14.2193705        0.0017229       98.7041564      115.0650983      103.9318514      272.1333226
     24300.0000000       14.2193708        0.0017458       98.7034741      116.9124189      101.8633840      141.1787834
     27000.0000000       14.2193711        0.0017653       98.7031711      118.7598426       99.7834938       10.2360763
     29700.0000000       14.2193714        0.0017814       98.7032770      120.6073666       97.6907546      239.3059753
     32400.0000000       14.2193717        0.0017936       98.7035222      122.4548690       95.5831463      108.3900499
     35100.0000000       14.2193721        0.0018016       98.7035119      124.3021994       93.4639985      337.4851020
     37800.0000000       14.2193724        0.0018058       98.7030267      126.1493007       91.3410224      206.5840701
     40500.0000000       14.2193727        0.0018064       98.7022023      127.9962520       89.2186318       75.6831925
     43200.0000000       14.2193730        0.0018034       98.7014012      129.8431839       87.0955624      304.7838675

